; Industry CAM Engine — Generated Program
; Profile: 4 segments, Mode: ID
; Stock: 2.0000 dia, Z 0.0500 to -1.5000
; DOC: 0.0500 dia, Rough Feed: 0.0030
; Fin Allowance: 0.0020 dia, Finish Feed: 0.0020
; RPM: 1200
; Tool: T1 

N10 G20 G18 G40 G49 G80  (Safety line - inch, ZX plane, comp off)
N20 G90  (Absolute positioning)

N30 S1200  (Spindle speed for encoder sync)
N40 G00 X3.0000 Z3.0000  (Move to park position)

N50 T0101 M6  (Load tool T1 - )
N60 G43  (Tool length comp on)
N70 G42  (Cutter radius compensation on)

; === ROUGHING PASSES (13 passes) ===
N80 G00 X0.5000 Z0.0500  (Rough pass 1: traverse Z to 0.0500 at X0.5000)
N90 G01 X0.5500 Z0.0500 F0.0030  (Rough pass 1: feed X to DOC level 0.5500)
N100 G01 X0.5500 Z-1.4990  (Rough pass 1 cut)
N110 G00 X0.5000 Z0.0500  (Diagonal retract to prev X level 0.5000 (clears shoulder))
N120 G00 X0.5500 Z0.0500  (Rough pass 2: traverse Z to 0.0500 at X0.5500)
N130 G01 X0.6000 Z0.0500  (Rough pass 2: feed X to DOC level 0.6000)
N140 G01 X0.6000 Z-1.4990  (Rough pass 2 cut)
N150 G00 X0.5500 Z0.0500  (Diagonal retract to prev X level 0.5500 (clears shoulder))
N160 G00 X0.6000 Z0.0500  (Rough pass 3: traverse Z to 0.0500 at X0.6000)
N170 G01 X0.6500 Z0.0500  (Rough pass 3: feed X to DOC level 0.6500)
N180 G01 X0.6500 Z-1.4990  (Rough pass 3 cut)
N190 G00 X0.6000 Z0.0500  (Diagonal retract to prev X level 0.6000 (clears shoulder))
N200 G00 X0.6500 Z0.0500  (Rough pass 4: traverse Z to 0.0500 at X0.6500)
N210 G01 X0.7000 Z0.0500  (Rough pass 4: feed X to DOC level 0.7000)
N220 G01 X0.7000 Z-1.4990  (Rough pass 4 cut)
N230 G00 X0.6500 Z0.0500  (Diagonal retract to prev X level 0.6500 (clears shoulder))
N240 G00 X0.7000 Z0.0500  (Rough pass 5: traverse Z to 0.0500 at X0.7000)
N250 G01 X0.7500 Z0.0500  (Rough pass 5: feed X to DOC level 0.7500)
N260 G01 X0.7500 Z-1.4990  (Rough pass 5 cut)
N270 G00 X0.7000 Z0.0500  (Diagonal retract to prev X level 0.7000 (clears shoulder))
N280 G00 X0.7500 Z0.0500  (Rough pass 6: traverse Z to 0.0500 at X0.7500)
N290 G01 X0.8000 Z0.0500  (Rough pass 6: feed X to DOC level 0.8000)
N300 G01 X0.8000 Z-0.9990  (Rough pass 6 cut)
N310 G00 X0.7500 Z0.0500  (Diagonal retract to prev X level 0.7500 (clears shoulder))
N320 G00 X0.8000 Z0.0500  (Rough pass 7: traverse Z to 0.0500 at X0.8000)
N330 G01 X0.8500 Z0.0500  (Rough pass 7: feed X to DOC level 0.8500)
N340 G01 X0.8500 Z-0.9990  (Rough pass 7 cut)
N350 G00 X0.8000 Z0.0500  (Diagonal retract to prev X level 0.8000 (clears shoulder))
N360 G00 X0.8500 Z0.0500  (Rough pass 8: traverse Z to 0.0500 at X0.8500)
N370 G01 X0.9000 Z0.0500  (Rough pass 8: feed X to DOC level 0.9000)
N380 G01 X0.9000 Z-0.9990  (Rough pass 8 cut)
N390 G00 X0.8500 Z0.0500  (Diagonal retract to prev X level 0.8500 (clears shoulder))
N400 G00 X0.9000 Z0.0500  (Rough pass 9: traverse Z to 0.0500 at X0.9000)
N410 G01 X0.9500 Z0.0500  (Rough pass 9: feed X to DOC level 0.9500)
N420 G01 X0.9500 Z-0.9990  (Rough pass 9 cut)
N430 G00 X0.9000 Z0.0500  (Diagonal retract to prev X level 0.9000 (clears shoulder))
N440 G00 X0.9500 Z0.0500  (Rough pass 10: traverse Z to 0.0500 at X0.9500)
N450 G01 X1.0000 Z0.0500  (Rough pass 10: feed X to DOC level 1.0000)
N460 G01 X1.0000 Z-0.9990  (Rough pass 10 cut)
N470 G00 X0.9500 Z0.0500  (Diagonal retract to prev X level 0.9500 (clears shoulder))
N480 G00 X1.0000 Z0.0500  (Rough pass 11: traverse Z to 0.0500 at X1.0000)
N490 G01 X1.0500 Z0.0500  (Rough pass 11: feed X to DOC level 1.0500)
N500 G01 X1.0500 Z-0.9990  (Rough pass 11 cut)
N510 G00 X1.0000 Z0.0500  (Diagonal retract to prev X level 1.0000 (clears shoulder))
N520 G00 X1.0500 Z0.0500  (Rough pass 12: traverse Z to 0.0500 at X1.0500)
N530 G01 X1.1000 Z0.0500  (Rough pass 12: feed X to DOC level 1.1000)
N540 G01 X1.1000 Z-0.9990  (Rough pass 12 cut)
N550 G00 X1.0500 Z0.0500  (Diagonal retract to prev X level 1.0500 (clears shoulder))
N560 G00 X1.1000 Z0.0500  (Rough pass 13: traverse Z to 0.0500 at X1.1000)
N570 G01 X1.1500 Z0.0500  (Rough pass 13: feed X to DOC level 1.1500)
N580 G01 X1.1500 Z-0.9990  (Rough pass 13 cut)
N590 G00 X1.1000 Z0.0500  (Diagonal retract to prev X level 1.1000 (clears shoulder))

; === CLEANUP PASS (semi-finish, roughing boundary contour) ===
N600 G00 X0.5000 Z0.0500  (Rapid to pilot hole at Z0+fin)
N610 G00 X0.5000 Z0.0500  (Rapid to X_start+fin=0.5000)
N620 G01 X1.1980 Z0.0500  (Cleanup move 1)
N630 G01 X1.1980 Z0.0010  (Cleanup move 2)
N640 G01 X1.1980 Z-0.9990  (Cleanup move 3)
N650 G01 X0.7980 Z-0.9990  (Cleanup move 4)
N660 G01 X0.7980 Z-1.4990  (Cleanup move 5)
N670 G00 X0.5000 Z-1.4990  (Retract X after cleanup)
N680 G00 X0.5000 Z0.0500  (Traverse Z to Z_start)

; === FINISH PASS (profile contour) ===
N690 G00 X0.5000 Z0.0500  (Rapid to pilot hole at Z0+fin)
N700 G00 X1.2000 Z0.0500  (Rapid to X_start=1.2000)
N710 G01 X1.2000 Z0.0000 F0.0020  (Finish move 1)
N720 G01 X1.2000 Z-1.0000  (Finish move 2)
N730 G01 X0.8000 Z-1.0000  (Finish move 3)
N740 G01 X0.8000 Z-1.5000  (Finish move 4)

; === PROGRAM END ===
N750 G40  (Cutter comp cancel)
N760 G00 X3.0000 Z3.0000  (Return to park)
N770 M2  (Program end)