; Industry CAM Engine — Generated Program
; Profile: 5 segments, Mode: OD
; Stock: 1.5000 dia, Z 0.1000 to -2.0000
; DOC: 0.0500 dia, Rough Feed: 0.0050
; Fin Allowance: 0.0020 dia, Finish Feed: 0.0030
; RPM: 1200
; Tool: T1 

N10 G20 G18 G40 G49 G80  (Safety line - inch, ZX plane, comp off)
N20 G90  (Absolute positioning)

N30 S1200  (Spindle speed for encoder sync)
N40 G00 X3.0000 Z3.0000  (Move to park position)

N50 T0101 M6  (Load tool T1 - )
N60 G43  (Tool length comp on)
N70 G42  (Cutter radius compensation on)

; === FACE PASSES (4 passes) ===
N80 G00 X1.5000 Z0.1000  (Approach: Stock OD, Z_start)
N90 G01 X1.5000 Z0.0750 F0.0050  (Face pass 1: feed Z to 0.0750)
N100 G01 X0.0000 Z0.0750  (Face pass 1: feed to X_start)
N110 G00 X1.5000 Z0.1000  (Retract X to stock OD, Z=0.1000 (prev pass))
N120 G01 X1.5000 Z0.0500  (Face pass 2: feed Z to 0.0500)
N130 G01 X0.0000 Z0.0500  (Face pass 2: feed to X_start)
N140 G00 X1.5000 Z0.0750  (Retract X to stock OD, Z=0.0750 (prev pass))
N150 G01 X1.5000 Z0.0250  (Face pass 3: feed Z to 0.0250)
N160 G01 X0.0000 Z0.0250  (Face pass 3: feed to X_start)
N170 G00 X1.5000 Z0.0500  (Retract X to stock OD, Z=0.0500 (prev pass))
N180 G01 X1.5000 Z0.0010  (Face pass 4: feed Z to 0.0010)
N190 G01 X0.0000 Z0.0010  (Face pass 4: feed to X_start)
N200 G00 X1.5000 Z0.0250  (Retract X to stock OD, Z=0.0250 (prev pass))

; === ROUGHING PASSES (9 passes) ===
N210 G00 X1.5000 Z0.0010  (Rough pass 1: traverse Z to 0.0010 at X1.5000)
N220 G01 X1.4520 Z0.0010  (Rough pass 1: feed X to DOC level 1.4520)
N230 G01 X1.4520 Z-0.4427  (Rough pass 1 cut)
N240 G03 X1.5000 Z-0.4925 I-2.1841 K-0.5573  (Rough pass 1 cut)
N250 G01 X1.5000 Z-1.5075  (Rough pass 1 cut)
N260 G03 X1.4520 Z-1.5573 I-2.2321 K0.5075  (Rough pass 1 cut)
N270 G01 X1.4520 Z-2.0000  (Rough pass 1 cut)
N280 G00 X1.5000 Z-2.0000  (Retract X to prev pass level 1.5000)
N290 G00 X1.5000 Z0.0010  (Rough pass 2: traverse Z to 0.0010 at X1.5000)
N300 G01 X1.4020 Z0.0010  (Rough pass 2: feed X to DOC level 1.4020)
N310 G01 X1.4020 Z-0.4488  (Rough pass 2 cut)
N320 G03 X1.5000 Z-0.5563 I-2.1341 K-0.5512  (Rough pass 2 cut)
N330 G01 X1.5000 Z-1.4437  (Rough pass 2 cut)
N340 G03 X1.4020 Z-1.5512 I-2.2321 K0.4437  (Rough pass 2 cut)
N350 G01 X1.4020 Z-2.0000  (Rough pass 2 cut)
N360 G00 X1.5000 Z-2.0000  (Retract X to prev pass level 1.5000)
N370 G00 X1.5000 Z0.0010  (Rough pass 3: traverse Z to 0.0010 at X1.5000)
N380 G01 X1.3520 Z0.0010  (Rough pass 3: feed X to DOC level 1.3520)
N390 G01 X1.3520 Z-0.4549  (Rough pass 3 cut)
N400 G03 X1.5000 Z-0.6292 I-2.0841 K-0.5451  (Rough pass 3 cut)
N410 G01 X1.5000 Z-1.3708  (Rough pass 3 cut)
N420 G03 X1.3520 Z-1.5451 I-2.2321 K0.3708  (Rough pass 3 cut)
N430 G01 X1.3520 Z-2.0000  (Rough pass 3 cut)
N440 G00 X1.5000 Z-2.0000  (Retract X to prev pass level 1.5000)
N450 G00 X1.5000 Z0.0010  (Rough pass 4: traverse Z to 0.0010 at X1.5000)
N460 G01 X1.3020 Z0.0010  (Rough pass 4: feed X to DOC level 1.3020)
N470 G01 X1.3020 Z-0.4611  (Rough pass 4 cut)
N480 G03 X1.5000 Z-0.7184 I-2.0341 K-0.5389  (Rough pass 4 cut)
N490 G01 X1.5000 Z-1.2816  (Rough pass 4 cut)
N500 G03 X1.3020 Z-1.5389 I-2.2321 K0.2816  (Rough pass 4 cut)
N510 G01 X1.3020 Z-2.0000  (Rough pass 4 cut)
N520 G00 X1.5000 Z-2.0000  (Retract X to prev pass level 1.5000)
N530 G00 X1.5000 Z0.0010  (Rough pass 5: traverse Z to 0.0010 at X1.5000)
N540 G01 X1.2520 Z0.0010  (Rough pass 5: feed X to DOC level 1.2520)
N550 G01 X1.2520 Z-0.4673  (Rough pass 5 cut)
N560 G03 X1.5000 Z-0.8505 I-1.9841 K-0.5327  (Rough pass 5 cut)
N570 G01 X1.5000 Z-1.1495  (Rough pass 5 cut)
N580 G03 X1.2520 Z-1.5327 I-2.2321 K0.1495  (Rough pass 5 cut)
N590 G01 X1.2520 Z-2.0000  (Rough pass 5 cut)
N600 G00 X1.5000 Z-2.0000  (Retract X to prev pass level 1.5000)
N610 G00 X1.5000 Z0.0010  (Rough pass 6: traverse Z to 0.0010 at X1.5000)
N620 G01 X1.2020 Z0.0010  (Rough pass 6: feed X to DOC level 1.2020)
N630 G01 X1.2020 Z-0.4736  (Rough pass 6 cut)
N640 G03 X1.2020 Z-1.5264 I-1.9341 K-0.5264  (Rough pass 6 cut)
N650 G01 X1.2020 Z-2.0000  (Rough pass 6 cut)
N660 G00 X1.5000 Z-2.0000  (Retract X to prev pass level 1.5000)
N670 G00 X1.4699 Z0.0010  (Rough pass 7: traverse Z to 0.0010 at X1.4699)
N680 G01 X1.1520 Z0.0010  (Rough pass 7: feed X to DOC level 1.1520)
N690 G01 X1.1520 Z-0.4800  (Rough pass 7 cut)
N700 G03 X1.1520 Z-1.5200 I-1.8841 K-0.5200  (Rough pass 7 cut)
N710 G01 X1.1520 Z-2.0000  (Rough pass 7 cut)
N720 G00 X1.4699 Z-2.0000  (Retract X to prev pass level 1.4699)
N730 G00 X1.4199 Z0.0010  (Rough pass 8: traverse Z to 0.0010 at X1.4199)
N740 G01 X1.1020 Z0.0010  (Rough pass 8: feed X to DOC level 1.1020)
N750 G01 X1.1020 Z-0.4865  (Rough pass 8 cut)
N760 G03 X1.1020 Z-1.5135 I-1.8341 K-0.5135  (Rough pass 8 cut)
N770 G01 X1.1020 Z-2.0000  (Rough pass 8 cut)
N780 G00 X1.4199 Z-2.0000  (Retract X to prev pass level 1.4199)
N790 G00 X1.3699 Z0.0010  (Rough pass 9: traverse Z to 0.0010 at X1.3699)
N800 G01 X1.0520 Z0.0010  (Rough pass 9: feed X to DOC level 1.0520)
N810 G01 X1.0520 Z-0.4931  (Rough pass 9 cut)
N820 G03 X1.0520 Z-1.5069 I-1.7841 K-0.5069  (Rough pass 9 cut)
N830 G01 X1.0520 Z-2.0000  (Rough pass 9 cut)
N840 G00 X1.3699 Z-2.0000  (Retract X to prev pass level 1.3699)

; === FINISH PASS (profile contour) ===
N850 G00 X1.5000 Z0.0010  (Rapid to stock OD at Z0+fin)
N860 G00 X0.0000 Z0.0010  (Rapid to X_start=0.0000)
N870 G01 X0.0000 Z0.0000 F0.0030  (Finish move 1)
N880 G01 X1.0000 Z0.0000  (Finish move 2)
N890 G01 X1.0000 Z-0.5000  (Finish move 3)
N900 G03 X1.0000 Z-1.5000 I-1.7321 K-0.5000  (Finish move 4)
N910 G01 X1.0000 Z-2.0000  (Finish move 5)

; === PROGRAM END ===
N920 G40  (Cutter comp cancel)
N930 G00 X3.0000 Z3.0000  (Return to park)
N940 M2  (Program end)