; Industry CAM Engine — Generated Program
; Profile: 5 segments, Mode: OD
; Stock: 1.5000 dia, Z 0.1000 to -2.0000
; DOC: 0.0500 dia, Rough Feed: 0.0050
; Fin Allowance: 0.0020 dia, Finish Feed: 0.0030
; RPM: 1200
; Tool: T1 

N10 G20 G18 G40 G49 G80  (Safety line - inch, ZX plane, comp off)
N20 G90  (Absolute positioning)

N30 S1200  (Spindle speed for encoder sync)
N40 G00 X3.0000 Z3.0000  (Move to park position)

N50 T0101 M6  (Load tool T1 - )
N60 G43  (Tool length comp on)
N70 G42  (Cutter radius compensation on)

; === FACE PASSES (4 passes) ===
N80 G00 X1.5000 Z0.1000  (Approach: Stock OD, Z_start)
N90 G01 X1.5000 Z0.0750 F0.0050  (Face pass 1: feed Z to 0.0750)
N100 G01 X0.0000 Z0.0750  (Face pass 1: feed to X_start)
N110 G00 X1.5000 Z0.1000  (Retract X to stock OD, Z=0.1000 (prev pass))
N120 G01 X1.5000 Z0.0500  (Face pass 2: feed Z to 0.0500)
N130 G01 X0.0000 Z0.0500  (Face pass 2: feed to X_start)
N140 G00 X1.5000 Z0.0750  (Retract X to stock OD, Z=0.0750 (prev pass))
N150 G01 X1.5000 Z0.0250  (Face pass 3: feed Z to 0.0250)
N160 G01 X0.0000 Z0.0250  (Face pass 3: feed to X_start)
N170 G00 X1.5000 Z0.0500  (Retract X to stock OD, Z=0.0500 (prev pass))
N180 G01 X1.5000 Z0.0010  (Face pass 4: feed Z to 0.0010)
N190 G01 X0.0000 Z0.0010  (Face pass 4: feed to X_start)
N200 G00 X1.5000 Z0.0250  (Retract X to stock OD, Z=0.0250 (prev pass))

; === ROUGHING PASSES (14 passes) ===
N210 G00 X1.5000 Z0.0010  (Rough pass 1: traverse Z to 0.0010 at X1.5000)
N220 G01 X1.4500 Z0.0010  (Rough pass 1: feed X to DOC level 1.4500)
N230 G01 X1.4500 Z-2.0000  (Rough pass 1 cut)
N240 G00 X1.5000 Z-2.0000  (Retract X to prev pass level 1.5000)
N250 G00 X1.4500 Z0.0010  (Rough pass 2: traverse Z to 0.0010 at X1.4500)
N260 G01 X1.4000 Z0.0010  (Rough pass 2: feed X to DOC level 1.4000)
N270 G01 X1.4000 Z-2.0000  (Rough pass 2 cut)
N280 G00 X1.4500 Z-2.0000  (Retract X to prev pass level 1.4500)
N290 G00 X1.4000 Z0.0010  (Rough pass 3: traverse Z to 0.0010 at X1.4000)
N300 G01 X1.3500 Z0.0010  (Rough pass 3: feed X to DOC level 1.3500)
N310 G01 X1.3500 Z-2.0000  (Rough pass 3 cut)
N320 G00 X1.4000 Z-2.0000  (Retract X to prev pass level 1.4000)
N330 G00 X1.3500 Z0.0010  (Rough pass 4: traverse Z to 0.0010 at X1.3500)
N340 G01 X1.3000 Z0.0010  (Rough pass 4: feed X to DOC level 1.3000)
N350 G01 X1.3000 Z-2.0000  (Rough pass 4 cut)
N360 G00 X1.3500 Z-2.0000  (Retract X to prev pass level 1.3500)
N370 G00 X1.3000 Z0.0010  (Rough pass 5: traverse Z to 0.0010 at X1.3000)
N380 G01 X1.2500 Z0.0010  (Rough pass 5: feed X to DOC level 1.2500)
N390 G01 X1.2500 Z-0.8590  (Rough pass 5 cut)
N400 G00 X1.3000 Z0.0010  (Diagonal retract to prev X level 1.3000 (clears shoulder))
N410 G00 X1.2500 Z0.0010  (Rough pass 6: traverse Z to 0.0010 at X1.2500)
N420 G01 X1.2500 Z0.0010  (Rough pass 6: feed X to DOC level 1.2500)
N430 G01 X1.2500 Z-2.0000  (Rough pass 6 cut)
N440 G00 X1.2500 Z-2.0000  (Retract X to prev pass level 1.2500)
N450 G00 X1.2500 Z0.0010  (Rough pass 7: traverse Z to 0.0010 at X1.2500)
N460 G01 X1.2000 Z0.0010  (Rough pass 7: feed X to DOC level 1.2000)
N470 G01 X1.2000 Z-0.7377  (Rough pass 7 cut)
N480 G00 X1.2500 Z0.0010  (Diagonal retract to prev X level 1.2500 (clears shoulder))
N490 G00 X1.2000 Z0.0010  (Rough pass 8: traverse Z to 0.0010 at X1.2000)
N500 G01 X1.2000 Z0.0010  (Rough pass 8: feed X to DOC level 1.2000)
N510 G01 X1.2000 Z-2.0000  (Rough pass 8 cut)
N520 G00 X1.2000 Z-2.0000  (Retract X to prev pass level 1.2000)
N530 G00 X1.2000 Z0.0010  (Rough pass 9: traverse Z to 0.0010 at X1.2000)
N540 G01 X1.1500 Z0.0010  (Rough pass 9: feed X to DOC level 1.1500)
N550 G01 X1.1500 Z-0.6587  (Rough pass 9 cut)
N560 G00 X1.2000 Z0.0010  (Diagonal retract to prev X level 1.2000 (clears shoulder))
N570 G00 X1.1500 Z0.0010  (Rough pass 10: traverse Z to 0.0010 at X1.1500)
N580 G01 X1.1500 Z0.0010  (Rough pass 10: feed X to DOC level 1.1500)
N590 G01 X1.1500 Z-2.0000  (Rough pass 10 cut)
N600 G00 X1.1500 Z-2.0000  (Retract X to prev pass level 1.1500)
N610 G00 X1.1500 Z0.0010  (Rough pass 11: traverse Z to 0.0010 at X1.1500)
N620 G01 X1.1000 Z0.0010  (Rough pass 11: feed X to DOC level 1.1000)
N630 G01 X1.1000 Z-0.5964  (Rough pass 11 cut)
N640 G00 X1.1500 Z0.0010  (Diagonal retract to prev X level 1.1500 (clears shoulder))
N650 G00 X1.1000 Z0.0010  (Rough pass 12: traverse Z to 0.0010 at X1.1000)
N660 G01 X1.1000 Z0.0010  (Rough pass 12: feed X to DOC level 1.1000)
N670 G01 X1.1000 Z-2.0000  (Rough pass 12 cut)
N680 G00 X1.1000 Z-2.0000  (Retract X to prev pass level 1.1000)
N690 G00 X1.1000 Z0.0010  (Rough pass 13: traverse Z to 0.0010 at X1.1000)
N700 G01 X1.0500 Z0.0010  (Rough pass 13: feed X to DOC level 1.0500)
N710 G01 X1.0500 Z-0.5438  (Rough pass 13 cut)
N720 G00 X1.1000 Z0.0010  (Diagonal retract to prev X level 1.1000 (clears shoulder))
N730 G00 X1.0500 Z0.0010  (Rough pass 14: traverse Z to 0.0010 at X1.0500)
N740 G01 X1.0500 Z0.0010  (Rough pass 14: feed X to DOC level 1.0500)
N750 G01 X1.0500 Z-2.0000  (Rough pass 14 cut)
N760 G00 X1.0500 Z-2.0000  (Retract X to prev pass level 1.0500)

; === CLEANUP PASS (semi-finish, roughing boundary contour) ===
N770 G00 X1.5000 Z0.0010  (Rapid to stock OD at Z0+fin)
N780 G00 X0.0020 Z0.0010  (Rapid to X_start+fin=0.0020)
N790 G01 X1.0020 Z0.0010  (Cleanup move 1)
N800 G01 X1.0020 Z-0.4997  (Cleanup move 2)
N810 G03 X1.0020 Z-1.5003 I-1.7341 K-0.5003  (Cleanup move 3)
N820 G01 X1.0020 Z-2.0000  (Cleanup move 4)
N830 G00 X1.5000 Z-2.0000  (Retract X after cleanup)
N840 G00 X1.5000 Z0.1000  (Traverse Z to Z_start)

; === FINISH PASS (profile contour) ===
N850 G00 X1.5000 Z0.0010  (Rapid to stock OD at Z0+fin)
N860 G00 X0.0000 Z0.0010  (Rapid to X_start=0.0000)
N870 G01 X0.0000 Z0.0000 F0.0030  (Finish move 1)
N880 G01 X1.0000 Z0.0000  (Finish move 2)
N890 G01 X1.0000 Z-0.5000  (Finish move 3)
N900 G03 X1.0000 Z-1.5000 I-1.7321 K-0.5000  (Finish move 4)
N910 G01 X1.0000 Z-2.0000  (Finish move 5)

; === PROGRAM END ===
N920 G40  (Cutter comp cancel)
N930 G00 X3.0000 Z3.0000  (Return to park)
N940 M2  (Program end)